start=new Date('2023-03-25T00:00:00.000Z').valueOf();
sats=[{"ARG_OF_PERICENTER":"40.0422","DECAY_DATE":null,"INCLINATION":"53.2168","GP_ID":"228825522","OBJECT_NAME":"STARLINK-5446","BSTAR":"-0.03675600000000","LAUNCH_DATE":"2022-12-17","SITE":"AFETR","TIME_SYSTEM":"UTC","PERIOD":"94.266","MEAN_MOTION_DOT":"-0.00931341","PERIAPSIS":"481.868","TLE_LINE2":"2 54789  53.2168 186.2968 0001692  40.0422 272.6578 15.27587251  1304","MEAN_ANOMALY":"272.6578","FILE":"3870109","APOAPSIS":"484.190","RA_OF_ASC_NODE":"186.2968","REF_FRAME":"TEME","NORAD_CAT_ID":"54789","MEAN_MOTION_DDOT":"0.0000000000000","REV_AT_EPOCH":"130","SEMIMAJOR_AXIS":"6861.164","RCS_SIZE":"LARGE","COUNTRY_CODE":"US","EPOCH":"2023-03-24T22:00:01.999584","ECCENTRICITY":"0.00016920","OBJECT_TYPE":"PAYLOAD","OBJECT_ID":"2022-175AH","ELEMENT_SET_NO":"999","MEAN_ELEMENT_THEORY":"SGP4","TLE_LINE1":"1 54789U 22175AH  23083.91668981 -.00931341  00000-0 -36756-1 0  9995","EPHEMERIS_TYPE":"0","MEAN_MOTION":"15.27587251","CLASSIFICATION_TYPE":"U","CENTER_NAME":"EARTH"},{"CLASSIFICATION_TYPE":"U","CENTER_NAME":"EARTH","ELEMENT_SET_NO":"999","MEAN_ELEMENT_THEORY":"SGP4","TLE_LINE1":"1 54790U 22175AJ  23083.79160952  .00005846  00000-0  38434-3 0  9995","EPHEMERIS_TYPE":"0","MEAN_MOTION":"15.08910332","RCS_SIZE":"LARGE","SEMIMAJOR_AXIS":"6917.665","COUNTRY_CODE":"US","EPOCH":"2023-03-24T18:59:55.062528","ECCENTRICITY":"0.00010650","OBJECT_TYPE":"PAYLOAD","OBJECT_ID":"2022-175AJ","FILE":"3870109","APOAPSIS":"540.267","RA_OF_ASC_NODE":"201.2407","REF_FRAME":"TEME","NORAD_CAT_ID":"54790","MEAN_MOTION_DDOT":"0.0000000000000","REV_AT_EPOCH":"1695","PERIOD":"95.433","MEAN_MOTION_DOT":"0.00005846","PERIAPSIS":"538.794","TLE_LINE2":"2 54790  53.2177 201.2407 0001065 118.4248 241.6852 15.08910332 16959","MEAN_ANOMALY":"241.6852","TIME_SYSTEM":"UTC","GP_ID":"228825273","OBJECT_NAME":"STARLINK-5445","INCLINATION":"53.2177","BSTAR":"0.00038434000000","LAUNCH_DATE":"2022-12-17","SITE":"AFETR","ARG_OF_PERICENTER":"118.4248","DECAY_DATE":null},{"TIME_SYSTEM":"UTC","PERIOD":"95.434","MEAN_MOTION_DOT":"0.00006475","PERIAPSIS":"538.801","TLE_LINE2":"2 54791  53.2167 201.6340 0001102  76.0716 284.0399 15.08899418 16947","MEAN_ANOMALY":"284.0399","DECAY_DATE":null,"ARG_OF_PERICENTER":"76.0716","OBJECT_NAME":"STARLINK-5425","GP_ID":"228826524","INCLINATION":"53.2167","BSTAR":"0.00042383000000","LAUNCH_DATE":"2022-12-17","SITE":"AFETR","MEAN_ELEMENT_THEORY":"SGP4","ELEMENT_SET_NO":"999","TLE_LINE1":"1 54791U 22175AK  23083.74011799  .00006475  00000-0  42383-3 0  9992","EPHEMERIS_TYPE":"0","MEAN_MOTION":"15.08899418","CLASSIFICATION_TYPE":"U","CENTER_NAME":"EARTH","FILE":"3870109","RA_OF_ASC_NODE":"201.6340","APOAPSIS":"540.326","REF_FRAME":"TEME","NORAD_CAT_ID":"54791","REV_AT_EPOCH":"1694","MEAN_MOTION_DDOT":"0.0000000000000","RCS_SIZE":"LARGE","SEMIMAJOR_AXIS":"6917.699","COUNTRY_CODE":"US","EPOCH":"2023-03-24T17:45:46.194336","ECCENTRICITY":"0.00011020","OBJECT_TYPE":"PAYLOAD","OBJECT_ID":"2022-175AK"},{"RA_OF_ASC_NODE":"216.7360","APOAPSIS":"540.534","FILE":"3870109","MEAN_MOTION_DDOT":"0.0000000000000","REV_AT_EPOCH":"1672","REF_FRAME":"TEME","NORAD_CAT_ID":"54792","COUNTRY_CODE":"US","SEMIMAJOR_AXIS":"6917.643","RCS_SIZE":"LARGE","OBJECT_TYPE":"PAYLOAD","OBJECT_ID":"2022-175AL","EPOCH":"2023-03-24T15:33:57.863232","ECCENTRICITY":"0.00014830","TLE_LINE1":"1 54792U 22175AL  23083.64858638  .00037199  00000-0  23381-2 0  9996","MEAN_ELEMENT_THEORY":"SGP4","ELEMENT_SET_NO":"999","EPHEMERIS_TYPE":"0","MEAN_MOTION":"15.08917563","CLASSIFICATION_TYPE":"U","CENTER_NAME":"EARTH","ARG_OF_PERICENTER":"70.2723","DECAY_DATE":null,"BSTAR":"0.00233810000000","GP_ID":"228826269","INCLINATION":"53.2163","OBJECT_NAME":"STARLINK-5431","LAUNCH_DATE":"2022-12-17","SITE":"AFETR","TIME_SYSTEM":"UTC","PERIOD":"95.433","MEAN_ANOMALY":"289.8429","PERIAPSIS":"538.482","MEAN_MOTION_DOT":"0.00037199","TLE_LINE2":"2 54792  53.2163 216.7360 0001483  70.2723 289.8429 15.08917563 16724"},{"CENTER_NAME":"EARTH","CLASSIFICATION_TYPE":"U","MEAN_MOTION":"15.25402186","EPHEMERIS_TYPE":"0","ELEMENT_SET_NO":"999","MEAN_ELEMENT_THEORY":"SGP4","TLE_LINE1":"1 54793U 22175AM  23083.91668981 -.00970816  00000-0 -41086-1 0  9992","EPOCH":"2023-03-24T22:00:01.999584","ECCENTRICITY":"0.00013750","OBJECT_TYPE":"PAYLOAD","OBJECT_ID":"2022-175AM","RCS_SIZE":"LARGE","SEMIMAJOR_AXIS":"6867.715","COUNTRY_CODE":"US","REF_FRAME":"TEME","NORAD_CAT_ID":"54793","MEAN_MOTION_DDOT":"0.0000000000000","REV_AT_EPOCH":"130","FILE":"3870109","RA_OF_ASC_NODE":"191.5616","APOAPSIS":"490.524","MEAN_MOTION_DOT":"-0.00970816","PERIAPSIS":"488.636","TLE_LINE2":"2 54793  53.2128 191.5616 0001375  89.7311 167.0281 15.25402186  1308","MEAN_ANOMALY":"167.0281","PERIOD":"94.401","TIME_SYSTEM":"UTC","LAUNCH_DATE":"2022-12-17","SITE":"AFETR","OBJECT_NAME":"STARLINK-5433","GP_ID":"228825023","INCLINATION":"53.2128","BSTAR":"-0.04108600000000","ARG_OF_PERICENTER":"89.7311","DECAY_DATE":null},{"ECCENTRICITY":"0.00030450","EPOCH":"2023-03-24T15:22:01.514784","OBJECT_ID":"2022-175AN","OBJECT_TYPE":"PAYLOAD","RCS_SIZE":"LARGE","SEMIMAJOR_AXIS":"6904.223","COUNTRY_CODE":"US","NORAD_CAT_ID":"54794","REF_FRAME":"TEME","MEAN_MOTION_DDOT":"0.0000000000000","REV_AT_EPOCH":"1673","FILE":"3870109","RA_OF_ASC_NODE":"215.9896","APOAPSIS":"528.191","CENTER_NAME":"EARTH","CLASSIFICATION_TYPE":"U","MEAN_MOTION":"15.13319098","EPHEMERIS_TYPE":"0","ELEMENT_SET_NO":"999","MEAN_ELEMENT_THEORY":"SGP4","TLE_LINE1":"1 54794U 22175AN  23083.64029531  .00096954  00000-0  53249-2 0  9990","SITE":"AFETR","LAUNCH_DATE":"2022-12-17","GP_ID":"228825773","OBJECT_NAME":"STARLINK-5392","INCLINATION":"53.2157","BSTAR":"0.00532490000000","DECAY_DATE":null,"ARG_OF_PERICENTER":"323.2582","TLE_LINE2":"2 54794  53.2157 215.9896 0003045 323.2582  36.8203 15.13319098 16730","PERIAPSIS":"523.986","MEAN_MOTION_DOT":"0.00096954","MEAN_ANOMALY":"36.8203","PERIOD":"95.155","TIME_SYSTEM":"UTC"},{"RCS_SIZE":"LARGE","SEMIMAJOR_AXIS":"6917.730","COUNTRY_CODE":"US","ECCENTRICITY":"0.00012380","EPOCH":"2023-03-24T14:19:05.941920","OBJECT_ID":"2022-175AP","OBJECT_TYPE":"PAYLOAD","FILE":"3869846","APOAPSIS":"540.451","RA_OF_ASC_NODE":"202.1567","NORAD_CAT_ID":"54795","REF_FRAME":"TEME","REV_AT_EPOCH":"1692","MEAN_MOTION_DDOT":"0.0000000000000","CLASSIFICATION_TYPE":"U","CENTER_NAME":"EARTH","ELEMENT_SET_NO":"999","MEAN_ELEMENT_THEORY":"SGP4","TLE_LINE1":"1 54795U 22175AP  23083.59659655  .00005696  00000-0  37515-3 0  9993","MEAN_MOTION":"15.08889302","EPHEMERIS_TYPE":"0","OBJECT_NAME":"STARLINK-5436","GP_ID":"228794152","INCLINATION":"53.2184","BSTAR":"0.00037515000000","SITE":"AFETR","LAUNCH_DATE":"2022-12-17","DECAY_DATE":null,"ARG_OF_PERICENTER":"105.5451","PERIOD":"95.434","TLE_LINE2":"2 54795  53.2184 202.1567 0001238 105.5451 254.5678 15.08889302 16922","MEAN_MOTION_DOT":"0.00005696","PERIAPSIS":"538.738","MEAN_ANOMALY":"254.5678","TIME_SYSTEM":"UTC"},{"PERIOD":"95.436","TLE_LINE2":"2 54796  52.9982 202.4918 0001546  93.0092 304.1997 15.08863621 14674","MEAN_MOTION_DOT":"0.01335309","PERIAPSIS":"538.604","MEAN_ANOMALY":"304.1997","TIME_SYSTEM":"UTC","OBJECT_NAME":"STARLINK-5415","GP_ID":"228795968","INCLINATION":"52.9982","BSTAR":"0.07710100000000","SITE":"AFETR","LAUNCH_DATE":"2022-12-17","DECAY_DATE":null,"ARG_OF_PERICENTER":"93.0092","CLASSIFICATION_TYPE":"U","CENTER_NAME":"EARTH","ELEMENT_SET_NO":"999","MEAN_ELEMENT_THEORY":"SGP4","TLE_LINE1":"1 54796U 22175AQ  23083.00001157  .01335309  00000-0  77101-1 0  9999","EPHEMERIS_TYPE":"0","MEAN_MOTION":"15.08863621","SEMIMAJOR_AXIS":"6917.808","RCS_SIZE":"LARGE","COUNTRY_CODE":"US","ECCENTRICITY":"0.00015460","EPOCH":"2023-03-24T00:00:00.999648","OBJECT_ID":"2022-175AQ","OBJECT_TYPE":"PAYLOAD","FILE":"3869893","RA_OF_ASC_NODE":"202.4918","APOAPSIS":"540.743","NORAD_CAT_ID":"54796","REF_FRAME":"TEME","MEAN_MOTION_DDOT":"0.0000000000000","REV_AT_EPOCH":"1467"},{"TIME_SYSTEM":"UTC","MEAN_ANOMALY":"262.9034","TLE_LINE2":"2 54797  53.2188 216.7597 0001362  97.2113 262.9034 15.08921582 14566","PERIAPSIS":"538.554","MEAN_MOTION_DOT":"0.00038362","PERIOD":"95.432","ARG_OF_PERICENTER":"97.2113","DECAY_DATE":null,"SITE":"AFETR","LAUNCH_DATE":"2022-12-17","BSTAR":"0.00241000000000","INCLINATION":"53.2188","GP_ID":"228763390","OBJECT_NAME":"STARLINK-5435","EPHEMERIS_TYPE":"0","MEAN_MOTION":"15.08921582","TLE_LINE1":"1 54797U 22175AR  23083.65226850  .00038362  00000-0  24100-2 0  9990","ELEMENT_SET_NO":"999","MEAN_ELEMENT_THEORY":"SGP4","CENTER_NAME":"EARTH","CLASSIFICATION_TYPE":"U","MEAN_MOTION_DDOT":"0.0000000000000","REV_AT_EPOCH":"1456","NORAD_CAT_ID":"54797","REF_FRAME":"TEME","APOAPSIS":"540.438","RA_OF_ASC_NODE":"216.7597","FILE":"3869671","OBJECT_ID":"2022-175AR","OBJECT_TYPE":"PAYLOAD","ECCENTRICITY":"0.00013620","EPOCH":"2023-03-24T15:39:15.998400","COUNTRY_CODE":"US","SEMIMAJOR_AXIS":"6917.631","RCS_SIZE":"LARGE"},{"ARG_OF_PERICENTER":"80.3020","DECAY_DATE":null,"SITE":"AFETR","LAUNCH_DATE":"2022-12-17","INCLINATION":"53.2136","GP_ID":"228825274","OBJECT_NAME":"STARLINK-5420","BSTAR":"-0.03887000000000","TIME_SYSTEM":"UTC","TLE_LINE2":"2 54798  53.2136 191.3167 0001263  80.3020 296.1789 15.27278683  1303","MEAN_MOTION_DOT":"-0.00972256","PERIAPSIS":"483.087","MEAN_ANOMALY":"296.1789","PERIOD":"94.285","NORAD_CAT_ID":"54798","REF_FRAME":"TEME","REV_AT_EPOCH":"130","MEAN_MOTION_DDOT":"0.0000000000000","FILE":"3870109","RA_OF_ASC_NODE":"191.3167","APOAPSIS":"484.820","ECCENTRICITY":"0.00012630","EPOCH":"2023-03-24T22:00:01.999584","OBJECT_ID":"2022-175AS","OBJECT_TYPE":"PAYLOAD","SEMIMAJOR_AXIS":"6862.088","RCS_SIZE":"LARGE","COUNTRY_CODE":"US","EPHEMERIS_TYPE":"0","MEAN_MOTION":"15.27278683","MEAN_ELEMENT_THEORY":"SGP4","ELEMENT_SET_NO":"999","TLE_LINE1":"1 54798U 22175AS  23083.91668981 -.00972256  00000-0 -38870-1 0  9994","CENTER_NAME":"EARTH","CLASSIFICATION_TYPE":"U"}];
